goo.gle/debugproto    
NoradCategory: 25544

goo.gle/debugproto    
tle {
  name: "ISS"
  line1: "LINE1"
  line2: "LINE2"
}
propogations {
  timestamp {
    seconds: 177774374
  }
  lat_lng {
    latitude: -42.9
    longitude: 150.9
  }
  altitude_meters: 454000
}

ISS (ZARYA)             
1 25544U 98067A   26012.17690827  .00009276  00000+0  17471-3 0  9997
2 25544  51.6333 351.7881 0007723   8.9804 351.1321 15.49250518547578
Norad Number:         25544
Int. Designator:      98067A  
Epoch:                2026-01-12 04:14:44.874528 UTC
Orbit Number:         54757
Mean Motion Dt2:        0.00009276
Mean Motion Ddt6:       0.00000000
Eccentricity:           0.00077230
BStar:                  0.00017471
Inclination:           51.63330000
Right Ascending Node: 351.78810000
Argument Perigee:       8.98040000
Mean Anomaly:         351.13210000
Mean Motion:           15.49250518

Lat:  -51.528, Lon:  -41.798, Alt:    437.070
Lat:  -50.957, Lon:  -35.962, Alt:    436.492
Lat:  -50.077, Lon:  -30.312, Alt:    435.790
Lat:  -48.910, Lon:  -24.906, Alt:    434.971
Lat:  -47.479, Lon:  -19.784, Alt:    434.044
Lat:  -45.809, Lon:  -14.968, Alt:    433.019
Lat:  -43.928, Lon:  -10.462, Alt:    431.907
Lat:  -41.860, Lon:   -6.259, Alt:    430.722
Lat:  -39.630, Lon:   -2.343, Alt:    429.478
Lat:  -37.258, Lon:    1.307, Alt:    428.190
Lat:  -34.764, Lon:    4.716, Alt:    426.874
Lat:  -32.165, Lon:    7.908, Alt:    425.546
Lat:  -29.477, Lon:   10.908, Alt:    424.223
Lat:  -26.711, Lon:   13.739, Alt:    422.921
Lat:  -23.879, Lon:   16.424, Alt:    421.656
Lat:  -20.993, Lon:   18.984, Alt:    420.443
Lat:  -18.060, Lon:   21.438, Alt:    419.296
Lat:  -15.089, Lon:   23.804, Alt:    418.229
Lat:  -12.087, Lon:   26.099, Alt:    417.255
Lat:   -9.061, Lon:   28.338, Alt:    416.382
Lat:   -6.018, Lon:   30.536, Alt:    415.621
Lat:   -2.962, Lon:   32.707, Alt:    414.979
Lat:    0.099, Lon:   34.865, Alt:    414.459
Lat:    3.160, Lon:   37.025, Alt:    414.066
Lat:    6.216, Lon:   39.198, Alt:    413.801
Lat:    9.261, Lon:   41.400, Alt:    413.662
Lat:   12.288, Lon:   43.645, Alt:    413.647
Lat:   15.292, Lon:   45.947, Alt:    413.750
Lat:   18.265, Lon:   48.322, Alt:    413.967
Lat:   21.200, Lon:   50.788, Alt:    414.287
Lat:   24.088, Lon:   53.362, Alt:    414.702
Lat:   26.921, Lon:   56.063, Alt:    415.201
Lat:   29.688, Lon:   58.914, Alt:    415.772
Lat:   32.378, Lon:   61.937, Alt:    416.401
Lat:   34.976, Lon:   65.155, Alt:    417.077
Lat:   37.467, Lon:   68.594, Alt:    417.785
Lat:   39.835, Lon:   72.280, Alt:    418.512
Lat:   42.059, Lon:   76.235, Alt:    419.244
Lat:   44.117, Lon:   80.482, Alt:    419.969
Lat:   45.986, Lon:   85.035, Alt:    420.674
Lat:   47.638, Lon:   89.902, Alt:    421.349
Lat:   49.049, Lon:   95.076, Alt:    421.982
Lat:   50.190, Lon:  100.533, Alt:    422.565
Lat:   51.039, Lon:  106.231, Alt:    423.090
Lat:   51.575, Lon:  112.107, Alt:    423.551
Lat:   51.786, Lon:  118.084, Alt:    423.945
Lat:   51.666, Lon:  124.073, Alt:    424.268
Lat:   51.218, Lon:  129.984, Alt:    424.519
Lat:   50.454, Lon:  135.736, Alt:    424.700
Lat:   49.392, Lon:  141.260, Alt:    424.812
Lat:   48.054, Lon:  146.510, Alt:    424.860
Lat:   46.468, Lon:  151.458, Alt:    424.848
Lat:   44.659, Lon:  156.093, Alt:    424.785
Lat:   42.655, Lon:  160.417, Alt:    424.678
Lat:   40.478, Lon:  164.446, Alt:    424.537
Lat:   38.153, Lon:  168.198, Alt:    424.370
Lat:   35.700, Lon:  171.697, Alt:    424.190
Lat:   33.136, Lon:  174.969, Alt:    424.006
Lat:   30.478, Lon:  178.038, Alt:    423.831
Lat:   27.739, Lon: -179.071, Alt:    423.674
Lat:   24.931, Lon: -176.335, Alt:    423.548
Lat:   22.066, Lon: -173.732, Alt:    423.462
Lat:   19.152, Lon: -171.244, Alt:    423.426
Lat:   16.198, Lon: -168.850, Alt:    423.448
Lat:   13.211, Lon: -166.535, Alt:    423.536
Lat:   10.199, Lon: -164.282, Alt:    423.695
Lat:    7.168, Lon: -162.076, Alt:    423.930
Lat:    4.124, Lon: -159.902, Alt:    424.243
Lat:    1.073, Lon: -157.747, Alt:    424.637
Lat:   -1.979, Lon: -155.597, Alt:    425.110
Lat:   -5.028, Lon: -153.439, Alt:    425.659
Lat:   -8.066, Lon: -151.258, Alt:    426.282
Lat:  -11.090, Lon: -149.042, Alt:    426.971
Lat:  -14.092, Lon: -146.775, Alt:    427.719
Lat:  -17.065, Lon: -144.442, Alt:    428.518
Lat:  -20.004, Lon: -142.027, Alt:    429.357
Lat:  -22.899, Lon: -139.513, Alt:    430.225
Lat:  -25.743, Lon: -136.880, Alt:    431.108
Lat:  -28.526, Lon: -134.109, Alt:    431.994
Lat:  -31.236, Lon: -131.178, Alt:    432.870
Lat:  -33.862, Lon: -128.064, Alt:    433.720
Lat:  -36.390, Lon: -124.742, Alt:    434.531
Lat:  -38.802, Lon: -121.187, Alt:    435.288
Lat:  -41.081, Lon: -117.376, Alt:    435.980
Lat:  -43.206, Lon: -113.284, Alt:    436.592
Lat:  -45.155, Lon: -108.895, Alt:    437.112
Lat:  -46.902, Lon: -104.197, Alt:    437.531
Lat:  -48.421, Lon:  -99.189, Alt:    437.839
Lat:  -49.686, Lon:  -93.888, Alt:    438.027
Lat:  -50.671, Lon:  -88.324, Alt:    438.090
